start=new Date('2021-11-07T00:00:00.000Z').valueOf();
sats=[{"MEAN_ELEMENT_THEORY":"SGP4","PERIAPSIS":"546.422","FILE":"3205964","REV_AT_EPOCH":"2987","COUNTRY_CODE":"US","TLE_LINE2":"2 48323  53.0562  12.5357 0001345  75.2911 284.8227 15.06354399 29878","MEAN_MOTION_DOT":"-0.00023703","CENTER_NAME":"EARTH","RA_OF_ASC_NODE":"12.5357","EPHEMERIS_TYPE":"0","BSTAR":"-0.00157960000000","SEMIMAJOR_AXIS":"6925.488","ELEMENT_SET_NO":"999","OBJECT_NAME":"STARLINK-2515","GP_ID":"189105317","NORAD_CAT_ID":"48323","RCS_SIZE":"LARGE","OBJECT_TYPE":"PAYLOAD","INCLINATION":"53.0562","MEAN_MOTION":"15.06354399","OBJECT_ID":"2021-036AZ","MEAN_MOTION_DDOT":"0.0000000000000","DECAY_DATE":null,"REF_FRAME":"TEME","LAUNCH_DATE":"2021-04-29","PERIOD":"95.595","MEAN_ANOMALY":"284.8227","ARG_OF_PERICENTER":"75.2911","CLASSIFICATION_TYPE":"U","SITE":"AFETR","TIME_SYSTEM":"UTC","EPOCH":"2021-11-06T16:11:45.712032","ECCENTRICITY":"0.00013450","TLE_LINE1":"1 48323U 21036AZ  21310.67483463 -.00023703  00000-0 -15796-2 0  9997","APOAPSIS":"548.285"},{"GP_ID":"189100855","NORAD_CAT_ID":"48324","RCS_SIZE":"LARGE","OBJECT_TYPE":"PAYLOAD","INCLINATION":"53.0555","MEAN_MOTION":"15.06333101","MEAN_ELEMENT_THEORY":"SGP4","PERIAPSIS":"546.396","FILE":"3205803","REV_AT_EPOCH":"2987","COUNTRY_CODE":"US","MEAN_MOTION_DOT":"-0.00034722","TLE_LINE2":"2 48324  53.0555  12.5643 0001476  68.3701 291.7445 15.06333101 29871","CENTER_NAME":"EARTH","EPHEMERIS_TYPE":"0","RA_OF_ASC_NODE":"12.5643","BSTAR":"-0.00232770000000","ELEMENT_SET_NO":"999","SEMIMAJOR_AXIS":"6925.554","OBJECT_NAME":"STARLINK-2527","CLASSIFICATION_TYPE":"U","ARG_OF_PERICENTER":"68.3701","SITE":"AFETR","TIME_SYSTEM":"UTC","EPOCH":"2021-11-06T16:06:27.389376","ECCENTRICITY":"0.00014760","TLE_LINE1":"1 48324U 21036BA  21310.67115034 -.00034722  00000-0 -23277-2 0  9990","APOAPSIS":"548.441","OBJECT_ID":"2021-036BA","MEAN_MOTION_DDOT":"0.0000000000000","PERIOD":"95.596","DECAY_DATE":null,"LAUNCH_DATE":"2021-04-29","REF_FRAME":"TEME","MEAN_ANOMALY":"291.7445"},{"ELEMENT_SET_NO":"999","SEMIMAJOR_AXIS":"6925.455","OBJECT_NAME":"STARLINK-2495","BSTAR":"-0.00135810000000","MEAN_MOTION_DOT":"-0.00020433","TLE_LINE2":"2 48325  53.0566  13.1707 0001196  71.0669 289.0449 15.06365381 29267","CENTER_NAME":"EARTH","RA_OF_ASC_NODE":"13.1707","EPHEMERIS_TYPE":"0","MEAN_ELEMENT_THEORY":"SGP4","PERIAPSIS":"546.491","FILE":"3206165","REV_AT_EPOCH":"2926","COUNTRY_CODE":"US","MEAN_MOTION":"15.06365381","OBJECT_TYPE":"PAYLOAD","INCLINATION":"53.0566","GP_ID":"189131724","RCS_SIZE":"LARGE","NORAD_CAT_ID":"48325","DECAY_DATE":null,"LAUNCH_DATE":"2021-04-29","PERIOD":"95.594","REF_FRAME":"TEME","MEAN_ANOMALY":"289.0449","MEAN_MOTION_DDOT":"0.0000000000000","OBJECT_ID":"2021-036BB","ECCENTRICITY":"0.00011960","TLE_LINE1":"1 48325U 21036BB  21310.53476152 -.00020433  00000-0 -13581-2 0  9998","APOAPSIS":"548.148","SITE":"AFETR","TIME_SYSTEM":"UTC","EPOCH":"2021-11-06T12:50:03.395328","ARG_OF_PERICENTER":"71.0669","CLASSIFICATION_TYPE":"U"},{"MEAN_ANOMALY":"300.2023","DECAY_DATE":null,"PERIOD":"95.596","LAUNCH_DATE":"2021-04-29","REF_FRAME":"TEME","OBJECT_ID":"2021-036BC","MEAN_MOTION_DDOT":"0.0000000000000","EPOCH":"2021-11-06T14:20:17.691936","TIME_SYSTEM":"UTC","SITE":"AFETR","APOAPSIS":"548.322","TLE_LINE1":"1 48326U 21036BC  21310.59742699 -.00030967  00000-0 -20721-2 0  9994","ECCENTRICITY":"0.00013650","CLASSIFICATION_TYPE":"U","ARG_OF_PERICENTER":"59.9101","BSTAR":"-0.00207210000000","OBJECT_NAME":"STARLINK-2498","ELEMENT_SET_NO":"999","SEMIMAJOR_AXIS":"6925.512","COUNTRY_CODE":"US","REV_AT_EPOCH":"2986","FILE":"3205795","PERIAPSIS":"546.431","MEAN_ELEMENT_THEORY":"SGP4","RA_OF_ASC_NODE":"12.8741","EPHEMERIS_TYPE":"0","CENTER_NAME":"EARTH","MEAN_MOTION_DOT":"-0.00030967","TLE_LINE2":"2 48326  53.0556  12.8741 0001365  59.9101 300.2023 15.06346763 29868","INCLINATION":"53.0556","OBJECT_TYPE":"PAYLOAD","MEAN_MOTION":"15.06346763","NORAD_CAT_ID":"48326","RCS_SIZE":"LARGE","GP_ID":"189100946"},{"OBJECT_ID":"2021-036BD","MEAN_MOTION_DDOT":"0.0000000000000","LAUNCH_DATE":"2021-04-29","DECAY_DATE":null,"REF_FRAME":"TEME","PERIOD":"95.594","MEAN_ANOMALY":"285.8089","ARG_OF_PERICENTER":"74.3052","CLASSIFICATION_TYPE":"U","TIME_SYSTEM":"UTC","EPOCH":"2021-11-06T12:39:26.633376","SITE":"AFETR","APOAPSIS":"548.284","ECCENTRICITY":"0.00013850","TLE_LINE1":"1 48327U 21036BD  21310.52739159 -.00020548  00000-0 -13659-2 0  9991","FILE":"3206165","COUNTRY_CODE":"US","REV_AT_EPOCH":"2926","MEAN_ELEMENT_THEORY":"SGP4","PERIAPSIS":"546.366","EPHEMERIS_TYPE":"0","RA_OF_ASC_NODE":"13.1856","MEAN_MOTION_DOT":"-0.00020548","TLE_LINE2":"2 48327  53.0554  13.1856 0001385  74.3052 285.8089 15.06363669 29264","CENTER_NAME":"EARTH","BSTAR":"-0.00136590000000","ELEMENT_SET_NO":"999","SEMIMAJOR_AXIS":"6925.460","OBJECT_NAME":"STARLINK-2502","RCS_SIZE":"LARGE","NORAD_CAT_ID":"48327","GP_ID":"189130223","INCLINATION":"53.0554","OBJECT_TYPE":"PAYLOAD","MEAN_MOTION":"15.06363669"},{"ELEMENT_SET_NO":"999","SEMIMAJOR_AXIS":"6925.529","OBJECT_NAME":"STARLINK-2504","BSTAR":"-0.00231190000000","TLE_LINE2":"2 48328  53.0554  12.6091 0001347  82.7795 277.3347 15.06341000 29870","MEAN_MOTION_DOT":"-0.00034496","CENTER_NAME":"EARTH","RA_OF_ASC_NODE":"12.6091","EPHEMERIS_TYPE":"0","MEAN_ELEMENT_THEORY":"SGP4","PERIAPSIS":"546.462","FILE":"3205805","COUNTRY_CODE":"US","REV_AT_EPOCH":"2987","MEAN_MOTION":"15.06341000","OBJECT_TYPE":"PAYLOAD","INCLINATION":"53.0554","GP_ID":"189100960","RCS_SIZE":"LARGE","NORAD_CAT_ID":"48328","DECAY_DATE":null,"REF_FRAME":"TEME","LAUNCH_DATE":"2021-04-29","PERIOD":"95.596","MEAN_ANOMALY":"277.3347","MEAN_MOTION_DDOT":"0.0000000000000","OBJECT_ID":"2021-036BE","ECCENTRICITY":"0.00013470","TLE_LINE1":"1 48328U 21036BE  21310.65639970 -.00034496  00000-0 -23119-2 0  9995","APOAPSIS":"548.327","SITE":"AFETR","EPOCH":"2021-11-06T15:45:12.934080","TIME_SYSTEM":"UTC","ARG_OF_PERICENTER":"82.7795","CLASSIFICATION_TYPE":"U"},{"BSTAR":"-0.00064587000000","OBJECT_NAME":"STARLINK-2510","ELEMENT_SET_NO":"999","SEMIMAJOR_AXIS":"6925.474","COUNTRY_CODE":"US","REV_AT_EPOCH":"2987","FILE":"3205805","PERIAPSIS":"546.430","MEAN_ELEMENT_THEORY":"SGP4","RA_OF_ASC_NODE":"12.6304","EPHEMERIS_TYPE":"0","CENTER_NAME":"EARTH","MEAN_MOTION_DOT":"-0.00009878","TLE_LINE2":"2 48329  53.0562  12.6304 0001313  77.8183 282.2953 15.06359090 29872","INCLINATION":"53.0562","OBJECT_TYPE":"PAYLOAD","MEAN_MOTION":"15.06359090","RCS_SIZE":"LARGE","NORAD_CAT_ID":"48329","GP_ID":"189101432","MEAN_ANOMALY":"282.2953","DECAY_DATE":null,"LAUNCH_DATE":"2021-04-29","REF_FRAME":"TEME","PERIOD":"95.595","OBJECT_ID":"2021-036BF","MEAN_MOTION_DDOT":"0.0000000000000","TIME_SYSTEM":"UTC","EPOCH":"2021-11-06T15:39:56.296224","SITE":"AFETR","APOAPSIS":"548.248","TLE_LINE1":"1 48329U 21036BF  21310.65273491 -.00009878  00000-0 -64587-3 0  9999","ECCENTRICITY":"0.00013130","CLASSIFICATION_TYPE":"U","ARG_OF_PERICENTER":"77.8183"},{"MEAN_MOTION_DOT":"-0.00031395","TLE_LINE2":"2 48330  53.0561  12.6533 0001556  61.0305 299.0840 15.06340804 29871","CENTER_NAME":"EARTH","RA_OF_ASC_NODE":"12.6533","EPHEMERIS_TYPE":"0","MEAN_ELEMENT_THEORY":"SGP4","PERIAPSIS":"546.317","FILE":"3205927","REV_AT_EPOCH":"2987","COUNTRY_CODE":"US","ELEMENT_SET_NO":"999","SEMIMAJOR_AXIS":"6925.530","OBJECT_NAME":"STARLINK-2501","BSTAR":"-0.00210140000000","GP_ID":"189104830","NORAD_CAT_ID":"48330","RCS_SIZE":"LARGE","MEAN_MOTION":"15.06340804","OBJECT_TYPE":"PAYLOAD","INCLINATION":"53.0561","MEAN_MOTION_DDOT":"0.0000000000000","OBJECT_ID":"2021-036BG","LAUNCH_DATE":"2021-04-29","DECAY_DATE":null,"PERIOD":"95.596","REF_FRAME":"TEME","MEAN_ANOMALY":"299.0840","ARG_OF_PERICENTER":"61.0305","CLASSIFICATION_TYPE":"U","ECCENTRICITY":"0.00015560","TLE_LINE1":"1 48330U 21036BG  21310.64902671 -.00031395  00000-0 -21014-2 0  9995","APOAPSIS":"548.473","SITE":"AFETR","TIME_SYSTEM":"UTC","EPOCH":"2021-11-06T15:34:35.907744"},{"MEAN_MOTION":"15.06346562","OBJECT_TYPE":"PAYLOAD","INCLINATION":"53.0557","GP_ID":"189102127","RCS_SIZE":"LARGE","NORAD_CAT_ID":"48331","OBJECT_NAME":"STARLINK-2514","SEMIMAJOR_AXIS":"6925.512","ELEMENT_SET_NO":"999","BSTAR":"-0.00226370000000","CENTER_NAME":"EARTH","TLE_LINE2":"2 48331  53.0557  12.9620 0001502  72.2446 287.8707 15.06346562 29861","MEAN_MOTION_DOT":"-0.00033791","EPHEMERIS_TYPE":"0","RA_OF_ASC_NODE":"12.9620","PERIAPSIS":"546.337","MEAN_ELEMENT_THEORY":"SGP4","REV_AT_EPOCH":"2986","COUNTRY_CODE":"US","FILE":"3205818","TLE_LINE1":"1 48331U 21036BH  21310.57899864 -.00033791  00000-0 -22637-2 0  9991","ECCENTRICITY":"0.00015020","APOAPSIS":"548.418","SITE":"AFETR","EPOCH":"2021-11-06T13:53:45.482496","TIME_SYSTEM":"UTC","CLASSIFICATION_TYPE":"U","ARG_OF_PERICENTER":"72.2446","MEAN_ANOMALY":"287.8707","LAUNCH_DATE":"2021-04-29","DECAY_DATE":null,"PERIOD":"95.596","REF_FRAME":"TEME","MEAN_MOTION_DDOT":"0.0000000000000","OBJECT_ID":"2021-036BH"},{"SEMIMAJOR_AXIS":"6925.933","ELEMENT_SET_NO":"999","OBJECT_NAME":"STARLINK-2511","BSTAR":"0.00504000000000","RA_OF_ASC_NODE":"12.9926","EPHEMERIS_TYPE":"0","MEAN_MOTION_DOT":"0.00075205","TLE_LINE2":"2 48332  53.0541  12.9926 0001398  71.8604 288.2537 15.06209317 29860","CENTER_NAME":"EARTH","FILE":"3205777","COUNTRY_CODE":"US","REV_AT_EPOCH":"2986","MEAN_ELEMENT_THEORY":"SGP4","PERIAPSIS":"546.830","MEAN_MOTION":"15.06209317","INCLINATION":"53.0541","OBJECT_TYPE":"PAYLOAD","NORAD_CAT_ID":"48332","RCS_SIZE":"LARGE","GP_ID":"189101130","REF_FRAME":"TEME","DECAY_DATE":null,"LAUNCH_DATE":"2021-04-29","PERIOD":"95.604","MEAN_ANOMALY":"288.2537","MEAN_MOTION_DDOT":"0.0000000000000","OBJECT_ID":"2021-036BJ","APOAPSIS":"548.766","ECCENTRICITY":"0.00013980","TLE_LINE1":"1 48332U 21036BJ  21310.57810895  .00075205  00000-0  50400-2 0  9992","EPOCH":"2021-11-06T13:52:28.613280","TIME_SYSTEM":"UTC","SITE":"AFETR","ARG_OF_PERICENTER":"71.8604","CLASSIFICATION_TYPE":"U"}];
